{
    "links": {
        "self": "http://www.neowsapp.com/rest/v1/neo/3797740?api_key=iIulBulltgU6a56xZRHN4H3l9WmuAYTsLGpBGhQ2"
    },
    "id": "3797740",
    "neo_reference_id": "3797740",
    "name": "(2018 BM1)",
    "designation": "2018 BM1",
    "nasa_jpl_url": "http://ssd.jpl.nasa.gov/sbdb.cgi?sstr=3797740",
    "absolute_magnitude_h": 24.5,
    "estimated_diameter": {
        "kilometers": {
            "estimated_diameter_min": 0.0334622374,
            "estimated_diameter_max": 0.0748238376
        },
        "meters": {
            "estimated_diameter_min": 33.4622374455,
            "estimated_diameter_max": 74.8238376074
        },
        "miles": {
            "estimated_diameter_min": 0.0207924639,
            "estimated_diameter_max": 0.0464933628
        },
        "feet": {
            "estimated_diameter_min": 109.7842471007,
            "estimated_diameter_max": 245.4850393757
        }
    },
    "is_potentially_hazardous_asteroid": false,
    "close_approach_data": [
        {
            "close_approach_date": "2017-12-08",
            "close_approach_date_full": "2017-Dec-08 08:33",
            "epoch_date_close_approach": 1512721980000,
            "relative_velocity": {
                "kilometers_per_second": "8.577361074",
                "kilometers_per_hour": "30878.4998662393",
                "miles_per_hour": "19186.6989863308"
            },
            "miss_distance": {
                "astronomical": "0.0693395032",
                "lunar": "26.9730667448",
                "kilometers": "10373041.985578184",
                "miles": "6445509.4075955792"
            },
            "orbiting_body": "Earth"
        }
    ],
    "orbital_data": {
        "orbit_id": "1",
        "orbit_determination_date": "2018-01-19 15:12:06",
        "first_observation_date": "2018-01-16",
        "last_observation_date": "2018-01-19",
        "data_arc_in_days": 3,
        "observations_used": 10,
        "orbit_uncertainty": "9",
        "minimum_orbit_intersection": ".0535631",
        "jupiter_tisserand_invariant": "3.165",
        "epoch_osculation": "2458135.5",
        "eccentricity": ".6121824407920212",
        "semi_major_axis": "2.510460781516164",
        "inclination": "5.811072471936226",
        "ascending_node_longitude": "118.0780004693004",
        "orbital_period": "1452.876130278469",
        "perihelion_distance": ".9736007727749535",
        "perihelion_argument": "307.1912396882983",
        "aphelion_distance": "4.047320790257374",
        "perihelion_time": "2458086.424838761036",
        "mean_anomaly": "12.16005802410757",
        "mean_motion": ".2477843723201646",
        "equinox": "J2000",
        "orbit_class": {
            "orbit_class_type": "APO",
            "orbit_class_description": "Near-Earth asteroid orbits which cross the Earth’s orbit similar to that of 1862 Apollo",
            "orbit_class_range": "a (semi-major axis) > 1.0 AU; q (perihelion) < 1.017 AU"
        }
    },
    "is_sentry_object": false
}